[{"OBJECT_NAME":"STARLINK-34775","OBJECT_ID":"2025-158C","EPOCH":"2026-03-09T14:46:32.585952","MEAN_MOTION":15.05650685,"ECCENTRICITY":0.0002956,"INCLINATION":97.601,"RA_OF_ASC_NODE":293.9965,"ARG_OF_PERICENTER":89.0893,"MEAN_ANOMALY":271.0673,"EPHEMERIS_TYPE":0,"CLASSIFICATION_TYPE":"U","NORAD_CAT_ID":64934,"ELEMENT_SET_NO":999,"REV_AT_EPOCH":3534,"BSTAR":0.00040057,"MEAN_MOTION_DOT":5.724e-5,"MEAN_MOTION_DDOT":0},{"OBJECT_NAME":"BREEZE-M DEB [TANK]","OBJECT_ID":"2009-016C","EPOCH":"2026-03-08T02:37:31.778976","MEAN_MOTION":5.68680357,"ECCENTRICITY":0.49208721,"INCLINATION":46,"RA_OF_ASC_NODE":337.9014,"ARG_OF_PERICENTER":159.5823,"MEAN_ANOMALY":230.3069,"EPHEMERIS_TYPE":0,"CLASSIFICATION_TYPE":"U","NORAD_CAT_ID":34712,"ELEMENT_SET_NO":999,"REV_AT_EPOCH":33774,"BSTAR":0.0010603755,"MEAN_MOTION_DOT":3.026e-5,"MEAN_MOTION_DDOT":0}]
